QIANFAN-105             
1 66047U 25233Q   25330.70626065  .00000240  00000+0  13325-3 0  9995
2 66047  88.9972  63.9023 0017670  87.5814 272.7392 14.07719451  5742
QIANFAN-106             
1 66048U 25233R   25330.71965941  .00000172  00000+0  98540-4 0  9993
2 66048  88.9973  63.9025 0018118  87.5082 272.8173 14.04613924  5744
QIANFAN-107             
1 66049U 25233S   25330.77678628  .00000400  00000+0  23405-3 0  9994
2 66049  88.9965  63.8919 0017870  88.8528 271.4701 14.06304445  5750
QIANFAN-108             
1 66050U 25233T   25330.78329551  .00000290  00000+0  16848-3 0  9995
2 66050  88.9964  63.8953 0017226  89.3279 270.9876 14.05965718  5755
